SL-3 R/B                
1 13403U 82079B   26044.90825819  .00006042  00000+0  24326-3 0  9996
2 13403  81.1440 221.1503 0024153 246.1233 113.7469 15.24435768374078
SL-14 R/B               
1 13553U 82092B   26044.75973341  .00000573  00000+0  61563-4 0  9992
2 13553  82.5709 163.7751 0020921  24.7383  90.7215 14.86640016325371
SL-3 R/B                
1 13819U 83010B   26044.94096895  .00014410  00000+0  29798-3 0  9997
2 13819  81.1024  31.3434 0018363 126.0052 234.2898 15.45486922354278
SL-3 R/B                
1 14208U 83075B   26044.94111343  .00011871  00000+0  31963-3 0  9992
2 14208  97.6129  48.6339 0020438 319.1637  40.8074 15.37802938326506
COSMOS 1536             
1 14699U 84013A   26044.68331707  .00005156  00000+0  21416-3 0  9999
2 14699  82.5469 131.7037 0014391  13.0356 347.1250 15.23499628268965
SL-14 R/B               
1 14820U 84027B   26044.92284331  .00000434  00000+0  46826-4 0  9994
2 14820  82.5392 267.3088 0019274  54.9436 305.3584 14.85952388244106
SL-8 R/B                
1 15483U 85006B   26044.93626888  .00000215  00000+0  79899-4 0  9999
2 15483  74.0463 304.8574 0019308 227.3761 219.8490 14.37771447150618
SL-12 R/B(2)            
1 15772U 85042D   26044.71603863  .00000050  00000+0  43842-4 0  9990
2 15772  71.1086 138.3786 0034624 166.6809 304.6872 14.21975765110984
SL-14 R/B               
1 15945U 85069B   26044.51090528  .00000592  00000+0  64239-4 0  9991
2 15945  82.5243  47.6726 0017159 273.0995  86.8258 14.86404192169248
SL-16 R/B               
1 16182U 85097B   26044.85676768 -.00000231  00000+0 -91710-4 0  9995
2 16182  71.0023 190.7244 0009709 287.4898 234.2648 14.16595064 83855
SL-14 R/B               
1 16496U 86006B   26044.69622141  .00000686  00000+0  70304-4 0  9990
2 16496  82.5258 282.3221 0076493 353.4513   6.5696 14.86782774145647
COSMOS 1743             
1 16719U 86034A   26044.55100962  .00030538  00000+0  42513-3 0  9995
2 16719  82.5326  99.1301 0004718  38.2207 321.9382 15.56781468176493
