CCSDS_OMM_VERS = 2.0
CREATION_DATE  = 
ORIGINATOR     = 

OBJECT_NAME    = SL-3 R/B
OBJECT_ID      = 1982-079B
CENTER_NAME    = EARTH
REF_FRAME      = TEME
TIME_SYSTEM    = UTC
MEAN_ELEMENT_THEORY = SGP/SGP4

EPOCH          = 2026-02-13T21:47:53.507616
MEAN_MOTION    = 15.24435768
ECCENTRICITY   = .00241539
INCLINATION    = 81.1440
RA_OF_ASC_NODE = 221.1503
ARG_OF_PERICENTER = 246.1233
MEAN_ANOMALY   = 113.7469

EPHEMERIS_TYPE = 0
CLASSIFICATION_TYPE = U
NORAD_CAT_ID   = 13403
ELEMENT_SET_NO = 999
REV_AT_EPOCH   = 37407
BSTAR          = .2432574E-3
MEAN_MOTION_DOT = .6042E-4
MEAN_MOTION_DDOT = 0

CCSDS_OMM_VERS = 2.0
CREATION_DATE  = 
ORIGINATOR     = 

OBJECT_NAME    = SL-14 R/B
OBJECT_ID      = 1982-092B
CENTER_NAME    = EARTH
REF_FRAME      = TEME
TIME_SYSTEM    = UTC
MEAN_ELEMENT_THEORY = SGP/SGP4

EPOCH          = 2026-02-13T18:14:00.966624
MEAN_MOTION    = 14.86640016
ECCENTRICITY   = .00209211
INCLINATION    = 82.5709
RA_OF_ASC_NODE = 163.7751
ARG_OF_PERICENTER = 24.7383
MEAN_ANOMALY   = 90.7215

EPHEMERIS_TYPE = 0
CLASSIFICATION_TYPE = U
NORAD_CAT_ID   = 13553
ELEMENT_SET_NO = 999
REV_AT_EPOCH   = 32537
BSTAR          = .61563264E-4
MEAN_MOTION_DOT = .573E-5
MEAN_MOTION_DDOT = 0

CCSDS_OMM_VERS = 2.0
CREATION_DATE  = 
ORIGINATOR     = 

OBJECT_NAME    = SL-3 R/B
OBJECT_ID      = 1983-010B
CENTER_NAME    = EARTH
REF_FRAME      = TEME
TIME_SYSTEM    = UTC
MEAN_ELEMENT_THEORY = SGP/SGP4

EPOCH          = 2026-02-13T22:34:59.717280
MEAN_MOTION    = 15.45486922
ECCENTRICITY   = .00183638
INCLINATION    = 81.1024
RA_OF_ASC_NODE = 31.3434
ARG_OF_PERICENTER = 126.0052
MEAN_ANOMALY   = 234.2898

EPHEMERIS_TYPE = 0
CLASSIFICATION_TYPE = U
NORAD_CAT_ID   = 13819
ELEMENT_SET_NO = 999
REV_AT_EPOCH   = 35427
BSTAR          = .29797657E-3
MEAN_MOTION_DOT = .1441E-3
MEAN_MOTION_DDOT = 0

CCSDS_OMM_VERS = 2.0
CREATION_DATE  = 
ORIGINATOR     = 

OBJECT_NAME    = SL-3 R/B
OBJECT_ID      = 1983-075B
CENTER_NAME    = EARTH
REF_FRAME      = TEME
TIME_SYSTEM    = UTC
MEAN_ELEMENT_THEORY = SGP/SGP4

EPOCH          = 2026-02-13T22:35:12.200352
MEAN_MOTION    = 15.37802938
ECCENTRICITY   = .00204388
INCLINATION    = 97.6129
RA_OF_ASC_NODE = 48.6339
ARG_OF_PERICENTER = 319.1637
MEAN_ANOMALY   = 40.8074

EPHEMERIS_TYPE = 0
CLASSIFICATION_TYPE = U
NORAD_CAT_ID   = 14208
ELEMENT_SET_NO = 999
REV_AT_EPOCH   = 32650
BSTAR          = .31962799E-3
MEAN_MOTION_DOT = .11871E-3
MEAN_MOTION_DDOT = 0

CCSDS_OMM_VERS = 2.0
CREATION_DATE  = 
ORIGINATOR     = 

OBJECT_NAME    = COSMOS 1536
OBJECT_ID      = 1984-013A
CENTER_NAME    = EARTH
REF_FRAME      = TEME
TIME_SYSTEM    = UTC
MEAN_ELEMENT_THEORY = SGP/SGP4

EPOCH          = 2026-02-13T16:23:58.594848
MEAN_MOTION    = 15.23499628
ECCENTRICITY   = .00143913
INCLINATION    = 82.5469
RA_OF_ASC_NODE = 131.7037
ARG_OF_PERICENTER = 13.0356
MEAN_ANOMALY   = 347.1250

EPHEMERIS_TYPE = 0
CLASSIFICATION_TYPE = U
NORAD_CAT_ID   = 14699
ELEMENT_SET_NO = 999
REV_AT_EPOCH   = 26896
BSTAR          = .2141619E-3
MEAN_MOTION_DOT = .5156E-4
MEAN_MOTION_DDOT = 0

CCSDS_OMM_VERS = 2.0
CREATION_DATE  = 
ORIGINATOR     = 

OBJECT_NAME    = SL-14 R/B
OBJECT_ID      = 1984-027B
CENTER_NAME    = EARTH
REF_FRAME      = TEME
TIME_SYSTEM    = UTC
MEAN_ELEMENT_THEORY = SGP/SGP4

EPOCH          = 2026-02-13T22:08:53.661984
MEAN_MOTION    = 14.85952388
ECCENTRICITY   = .00192742
INCLINATION    = 82.5392
RA_OF_ASC_NODE = 267.3088
ARG_OF_PERICENTER = 54.9436
MEAN_ANOMALY   = 305.3584

EPHEMERIS_TYPE = 0
CLASSIFICATION_TYPE = U
NORAD_CAT_ID   = 14820
ELEMENT_SET_NO = 999
REV_AT_EPOCH   = 24410
BSTAR          = .46826224E-4
MEAN_MOTION_DOT = .434E-5
MEAN_MOTION_DDOT = 0

CCSDS_OMM_VERS = 2.0
CREATION_DATE  = 
ORIGINATOR     = 

OBJECT_NAME    = SL-8 R/B
OBJECT_ID      = 1985-006B
CENTER_NAME    = EARTH
REF_FRAME      = TEME
TIME_SYSTEM    = UTC
MEAN_ELEMENT_THEORY = SGP/SGP4

EPOCH          = 2026-02-13T22:28:13.631232
MEAN_MOTION    = 14.37771447
ECCENTRICITY   = .00193085
INCLINATION    = 74.0463
RA_OF_ASC_NODE = 304.8574
ARG_OF_PERICENTER = 227.3761
MEAN_ANOMALY   = 219.8490

EPHEMERIS_TYPE = 0
CLASSIFICATION_TYPE = U
NORAD_CAT_ID   = 15483
ELEMENT_SET_NO = 999
REV_AT_EPOCH   = 15061
BSTAR          = .79898838E-4
MEAN_MOTION_DOT = .215E-5
MEAN_MOTION_DDOT = 0

CCSDS_OMM_VERS = 2.0
CREATION_DATE  = 
ORIGINATOR     = 

OBJECT_NAME    = SL-12 R/B(2)
OBJECT_ID      = 1985-042D
CENTER_NAME    = EARTH
REF_FRAME      = TEME
TIME_SYSTEM    = UTC
MEAN_ELEMENT_THEORY = SGP/SGP4

EPOCH          = 2026-02-13T17:11:05.737632
MEAN_MOTION    = 14.21975765
ECCENTRICITY   = .00346242
INCLINATION    = 71.1086
RA_OF_ASC_NODE = 138.3786
ARG_OF_PERICENTER = 166.6809
MEAN_ANOMALY   = 304.6872

EPHEMERIS_TYPE = 0
CLASSIFICATION_TYPE = U
NORAD_CAT_ID   = 15772
ELEMENT_SET_NO = 999
REV_AT_EPOCH   = 11098
BSTAR          = .4384179E-4
MEAN_MOTION_DOT = .5E-6
MEAN_MOTION_DDOT = 0

CCSDS_OMM_VERS = 2.0
CREATION_DATE  = 
ORIGINATOR     = 

OBJECT_NAME    = SL-14 R/B
OBJECT_ID      = 1985-069B
CENTER_NAME    = EARTH
REF_FRAME      = TEME
TIME_SYSTEM    = UTC
MEAN_ELEMENT_THEORY = SGP/SGP4

EPOCH          = 2026-02-13T12:15:42.216192
MEAN_MOTION    = 14.86404192
ECCENTRICITY   = .00171596
INCLINATION    = 82.5243
RA_OF_ASC_NODE = 47.6726
ARG_OF_PERICENTER = 273.0995
MEAN_ANOMALY   = 86.8258

EPHEMERIS_TYPE = 0
CLASSIFICATION_TYPE = U
NORAD_CAT_ID   = 15945
ELEMENT_SET_NO = 999
REV_AT_EPOCH   = 16924
BSTAR          = .64239467E-4
MEAN_MOTION_DOT = .592E-5
MEAN_MOTION_DDOT = 0

CCSDS_OMM_VERS = 2.0
CREATION_DATE  = 
ORIGINATOR     = 

OBJECT_NAME    = SL-16 R/B
OBJECT_ID      = 1985-097B
CENTER_NAME    = EARTH
REF_FRAME      = TEME
TIME_SYSTEM    = UTC
MEAN_ELEMENT_THEORY = SGP/SGP4

EPOCH          = 2026-02-13T20:33:44.727552
MEAN_MOTION    = 14.16595064
ECCENTRICITY   = .00097093
INCLINATION    = 71.0023
RA_OF_ASC_NODE = 190.7244
ARG_OF_PERICENTER = 287.4898
MEAN_ANOMALY   = 234.2648

EPHEMERIS_TYPE = 0
CLASSIFICATION_TYPE = U
NORAD_CAT_ID   = 16182
ELEMENT_SET_NO = 999
REV_AT_EPOCH   = 8385
BSTAR          = -.91710042E-4
MEAN_MOTION_DOT = -.231E-5
MEAN_MOTION_DDOT = 0

CCSDS_OMM_VERS = 2.0
CREATION_DATE  = 
ORIGINATOR     = 

OBJECT_NAME    = SL-14 R/B
OBJECT_ID      = 1986-006B
CENTER_NAME    = EARTH
REF_FRAME      = TEME
TIME_SYSTEM    = UTC
MEAN_ELEMENT_THEORY = SGP/SGP4

EPOCH          = 2026-02-13T16:42:33.529824
MEAN_MOTION    = 14.86782774
ECCENTRICITY   = .0076493
INCLINATION    = 82.5258
RA_OF_ASC_NODE = 282.3221
ARG_OF_PERICENTER = 353.4513
MEAN_ANOMALY   = 6.5696

EPHEMERIS_TYPE = 0
CLASSIFICATION_TYPE = U
NORAD_CAT_ID   = 16496
ELEMENT_SET_NO = 999
REV_AT_EPOCH   = 14564
BSTAR          = .70304476E-4
MEAN_MOTION_DOT = .686E-5
MEAN_MOTION_DDOT = 0

CCSDS_OMM_VERS = 2.0
CREATION_DATE  = 
ORIGINATOR     = 

OBJECT_NAME    = COSMOS 1743
OBJECT_ID      = 1986-034A
CENTER_NAME    = EARTH
REF_FRAME      = TEME
TIME_SYSTEM    = UTC
MEAN_ELEMENT_THEORY = SGP/SGP4

EPOCH          = 2026-02-13T13:13:27.231168
MEAN_MOTION    = 15.56781468
ECCENTRICITY   = .00047185
INCLINATION    = 82.5326
RA_OF_ASC_NODE = 99.1301
ARG_OF_PERICENTER = 38.2207
MEAN_ANOMALY   = 321.9382

EPHEMERIS_TYPE = 0
CLASSIFICATION_TYPE = U
NORAD_CAT_ID   = 16719
ELEMENT_SET_NO = 999
REV_AT_EPOCH   = 17649
BSTAR          = .42513025E-3
MEAN_MOTION_DOT = .30538E-3
MEAN_MOTION_DDOT = 0

